{"type": "FeatureCollection", "features": [ {"type": "Feature", "properties": {"norad_id": 66757, "name": "TRANSPORTER-15CV", "group": "last-30-days", "lat": 76.78303828894492, "lon": -75.65514299103837, "alt_km": 503.4631946718491, "timestamp": "2025-12-24T22:42:20.745628+00:00", "meta": {"OBJECT_NAME": "TRANSPORTER-15CV", "OBJECT_ID": "2025-276CV", "EPOCH": "2025-12-24T06:26:36.386016", "MEAN_MOTION": 15.18091372, "ECCENTRICITY": 0.00020695, "INCLINATION": 97.4421, "RA_OF_ASC_NODE": 69.8597, "ARG_OF_PERICENTER": 155.4992, "MEAN_ANOMALY": 204.6341, "EPHEMERIS_TYPE": 0, "CLASSIFICATION_TYPE": "U", "NORAD_CAT_ID": 66757, "ELEMENT_SET_NO": 999, "REV_AT_EPOCH": 387, "BSTAR": 0.00062084031, "MEAN_MOTION_DOT": 0.00012602, "MEAN_MOTION_DDOT": 0}, "tle": {"line1": "1 66757U 25276CV  25358.26847669  .00012602  00000+0  62084-3 0  9997", "line2": "2 66757  97.4421  69.8597 0002069 155.4992 204.6341 15.18091372  3871"}}, "geometry": {"type": "Point", "coordinates": [-75.65514299103837, 76.78303828894492]}}, {"type": "Feature", "properties": {"norad_id": 66758, "name": "TRANSPORTER-15CW", "group": "last-30-days", "lat": 75.49868692689087, "lon": -79.13973306413487, "alt_km": 503.5547962812798, "timestamp": "2025-12-24T22:42:20.745638+00:00", "meta": {"OBJECT_NAME": "TRANSPORTER-15CW", "OBJECT_ID": "2025-276CW", "EPOCH": "2025-12-24T06:26:12.467040", "MEAN_MOTION": 15.1809391, "ECCENTRICITY": 0.00014693, "INCLINATION": 97.4392, "RA_OF_ASC_NODE": 69.8497, "ARG_OF_PERICENTER": 137.4548, "MEAN_ANOMALY": 222.68, "EPHEMERIS_TYPE": 0, "CLASSIFICATION_TYPE": "U", "NORAD_CAT_ID": 66758, "ELEMENT_SET_NO": 999, "REV_AT_EPOCH": 387, "BSTAR": 0.00055534732, "MEAN_MOTION_DOT": 0.00011264, "MEAN_MOTION_DDOT": 0}, "tle": {"line1": "1 66758U 25276CW  25358.26819985  .00011264  00000+0  55535-3 0  9994", "line2": "2 66758  97.4392  69.8497 0001469 137.4548 222.6800 15.18093910  3878"}}, "geometry": {"type": "Point", "coordinates": [-79.13973306413487, 75.49868692689087]}}, {"type": "Feature", "properties": {"norad_id": 66759, "name": "TRANSPORTER-15CX", "group": "last-30-days", "lat": 66.32147569193991, "lon": -92.15238444267403, "alt_km": 503.50405416681133, "timestamp": "2025-12-24T22:42:20.745648+00:00", "meta": {"OBJECT_NAME": "TRANSPORTER-15CX", "OBJECT_ID": "2025-276CX", "EPOCH": "2025-12-24T03:13:50.466432", "MEAN_MOTION": 15.18234635, "ECCENTRICITY": 0.00018047, "INCLINATION": 97.4377, "RA_OF_ASC_NODE": 69.7181, "ARG_OF_PERICENTER": 137.2523, "MEAN_ANOMALY": 222.8851, "EPHEMERIS_TYPE": 0, "CLASSIFICATION_TYPE": "U", "NORAD_CAT_ID": 66759, "ELEMENT_SET_NO": 999, "REV_AT_EPOCH": 385, "BSTAR": 0.00075944991, "MEAN_MOTION_DOT": 0.000155, "MEAN_MOTION_DDOT": 0}, "tle": {"line1": "1 66759U 25276CX  25358.13461188  .00015500  00000+0  75945-3 0  9993", "line2": "2 66759  97.4377  69.7181 0001804 137.2523 222.8851 15.18234635  3852"}}, "geometry": {"type": "Point", "coordinates": [-92.15238444267403, 66.32147569193991]}}, {"type": "Feature", "properties": {"norad_id": 66760, "name": "TRANSPORTER-15CY", "group": "last-30-days", "lat": 64.55889412108245, "lon": -93.53351638734796, "alt_km": 503.77051799222045, "timestamp": "2025-12-24T22:42:20.745658+00:00", "meta": {"OBJECT_NAME": "TRANSPORTER-15CY", "OBJECT_ID": "2025-276CY", "EPOCH": "2025-12-24T06:23:08.759904", "MEAN_MOTION": 15.18204746, "ECCENTRICITY": 0.00017342, "INCLINATION": 97.4397, "RA_OF_ASC_NODE": 69.8544, "ARG_OF_PERICENTER": 112.955, "MEAN_ANOMALY": 247.1867, "EPHEMERIS_TYPE": 0, "CLASSIFICATION_TYPE": "U", "NORAD_CAT_ID": 66760, "ELEMENT_SET_NO": 999, "REV_AT_EPOCH": 387, "BSTAR": 0.00037155826, "MEAN_MOTION_DOT": 7.534e-05, "MEAN_MOTION_DDOT": 0}, "tle": {"line1": "1 66760U 25276CY  25358.26607361  .00007534  00000+0  37156-3 0  9994", "line2": "2 66760  97.4397  69.8544 0001734 112.9550 247.1867 15.18204746  3871"}}, "geometry": {"type": "Point", "coordinates": [-93.53351638734796, 64.55889412108245]}}, {"type": "Feature", "properties": {"norad_id": 66761, "name": "TRANSPORTER-15CZ", "group": "last-30-days", "lat": 49.02933088626743, "lon": -100.81599569700388, "alt_km": 504.76225391762, "timestamp": "2025-12-24T22:42:20.745667+00:00", "meta": {"OBJECT_NAME": "TRANSPORTER-15CZ", "OBJECT_ID": "2025-276CZ", "EPOCH": "2025-12-24T06:19:07.655520", "MEAN_MOTION": 15.18503145, "ECCENTRICITY": 0.00017283, "INCLINATION": 97.4396, "RA_OF_ASC_NODE": 69.8578, "ARG_OF_PERICENTER": 122.5058, "MEAN_ANOMALY": 237.6344, "EPHEMERIS_TYPE": 0, "CLASSIFICATION_TYPE": "U", "NORAD_CAT_ID": 66761, "ELEMENT_SET_NO": 999, "REV_AT_EPOCH": 387, "BSTAR": 0.00055882975, "MEAN_MOTION_DOT": 0.0001147, "MEAN_MOTION_DDOT": 0}, "tle": {"line1": "1 66761U 25276CZ  25358.26328305  .00011470  00000+0  55883-3 0  9994", "line2": "2 66761  97.4396  69.8578 0001728 122.5058 237.6344 15.18503145  3870"}}, "geometry": {"type": "Point", "coordinates": [-100.81599569700388, 49.02933088626743]}}, {"type": "Feature", "properties": {"norad_id": 66762, "name": "HYDROGNSS-1", "group": "last-30-days", "lat": 34.819667355972896, "lon": 65.27759169769068, "alt_km": 512.3159181937181, "timestamp": "2025-12-24T22:42:20.745679+00:00", "meta": {"OBJECT_NAME": "HYDROGNSS-1", "OBJECT_ID": "2025-276DA", "EPOCH": "2025-12-24T03:33:29.792736", "MEAN_MOTION": 15.17308645, "ECCENTRICITY": 0.00010064, "INCLINATION": 97.4406, "RA_OF_ASC_NODE": 69.7093, "ARG_OF_PERICENTER": 249.5865, "MEAN_ANOMALY": 110.526, "EPHEMERIS_TYPE": 0, "CLASSIFICATION_TYPE": "U", "NORAD_CAT_ID": 66762, "ELEMENT_SET_NO": 999, "REV_AT_EPOCH": 385, "BSTAR": 0.00029827884, "MEAN_MOTION_DOT": 5.88e-05, "MEAN_MOTION_DDOT": 0}, "tle": {"line1": "1 66762U 25276DA  25358.14826149  .00005880  00000+0  29828-3 0  9999", "line2": "2 66762  97.4406  69.7093 0001006 249.5865 110.5260 15.17308645  3850"}}, "geometry": {"type": "Point", "coordinates": [65.27759169769068, 34.819667355972896]}}, {"type": "Feature", "properties": {"norad_id": 66763, "name": "HYDROGNSS-2", "group": "last-30-days", "lat": 46.627806411497225, "lon": 62.54971628493284, "alt_km": 510.4892700539176, "timestamp": "2025-12-24T22:42:20.745691+00:00", "meta": {"OBJECT_NAME": "HYDROGNSS-2", "OBJECT_ID": "2025-276DB", "EPOCH": "2025-12-22T10:21:31.448736", "MEAN_MOTION": 15.17420203, "ECCENTRICITY": 0.00013861, "INCLINATION": 97.4416, "RA_OF_ASC_NODE": 68.032, "ARG_OF_PERICENTER": 244.5475, "MEAN_ANOMALY": 115.5615, "EPHEMERIS_TYPE": 0, "CLASSIFICATION_TYPE": "U", "NORAD_CAT_ID": 66763, "ELEMENT_SET_NO": 999, "REV_AT_EPOCH": 359, "BSTAR": 0.00019983047, "MEAN_MOTION_DOT": 3.929e-05, "MEAN_MOTION_DDOT": 0}, "tle": {"line1": "1 66763U 25276DB  25356.43161399  .00003929  00000+0  19983-3 0  9992", "line2": "2 66763  97.4416  68.0320 0001386 244.5475 115.5615 15.17420203  3595"}}, "geometry": {"type": "Point", "coordinates": [62.54971628493284, 46.627806411497225]}}, {"type": "Feature", "properties": {"norad_id": 66764, "name": "TRANSPORTER-15DC", "group": "last-30-days", "lat": 71.55171276565464, "lon": 47.44347712747714, "alt_km": 506.4515762749834, "timestamp": "2025-12-24T22:42:20.745701+00:00", "meta": {"OBJECT_NAME": "TRANSPORTER-15DC", "OBJECT_ID": "2025-276DC", "EPOCH": "2025-12-24T06:33:41.353056", "MEAN_MOTION": 15.17703692, "ECCENTRICITY": 0.00021433, "INCLINATION": 97.4404, "RA_OF_ASC_NODE": 69.846, "ARG_OF_PERICENTER": 188.8925, "MEAN_ANOMALY": 171.2272, "EPHEMERIS_TYPE": 0, "CLASSIFICATION_TYPE": "U", "NORAD_CAT_ID": 66764, "ELEMENT_SET_NO": 999, "REV_AT_EPOCH": 387, "BSTAR": 0.00047100156, "MEAN_MOTION_DOT": 9.434e-05, "MEAN_MOTION_DDOT": 0}, "tle": {"line1": "1 66764U 25276DC  25358.27339529  .00009434  00000+0  47100-3 0  9998", "line2": "2 66764  97.4404  69.8460 0002143 188.8925 171.2272 15.17703692  3874"}}, "geometry": {"type": "Point", "coordinates": [47.44347712747714, 71.55171276565464]}}, {"type": "Feature", "properties": {"norad_id": 66765, "name": "TRANSPORTER-15DD", "group": "last-30-days", "lat": 29.046533679472258, "lon": -105.29113062950482, "alt_km": 507.106002828119, "timestamp": "2025-12-24T22:42:20.745713+00:00", "meta": {"OBJECT_NAME": "TRANSPORTER-15DD", "OBJECT_ID": "2025-276DD", "EPOCH": "2025-12-24T06:13:57.946080", "MEAN_MOTION": 15.1876466, "ECCENTRICITY": 0.00020037, "INCLINATION": 97.442, "RA_OF_ASC_NODE": 69.8701, "ARG_OF_PERICENTER": 116.4424, "MEAN_ANOMALY": 243.7016, "EPHEMERIS_TYPE": 0, "CLASSIFICATION_TYPE": "U", "NORAD_CAT_ID": 66765, "ELEMENT_SET_NO": 999, "REV_AT_EPOCH": 387, "BSTAR": 0.00068841211, "MEAN_MOTION_DOT": 0.00014257, "MEAN_MOTION_DDOT": 0}, "tle": {"line1": "1 66765U 25276DD  25358.25969845  .00014257  00000+0  68841-3 0  9991", "line2": "2 66765  97.4420  69.8701 0002003 116.4424 243.7016 15.18764660  3871"}}, "geometry": {"type": "Point", "coordinates": [-105.29113062950482, 29.046533679472258]}}, {"type": "Feature", "properties": {"norad_id": 66766, "name": "TRANSPORTER-15DE", "group": "last-30-days", "lat": 46.27634015978817, "lon": -101.63180844851281, "alt_km": 505.6304464408704, "timestamp": "2025-12-24T22:42:20.745723+00:00", "meta": {"OBJECT_NAME": "TRANSPORTER-15DE", "OBJECT_ID": "2025-276DE", "EPOCH": "2025-12-24T06:18:20.850048", "MEAN_MOTION": 15.18431001, "ECCENTRICITY": 0.00020428, "INCLINATION": 97.4361, "RA_OF_ASC_NODE": 69.8474, "ARG_OF_PERICENTER": 86.4008, "MEAN_ANOMALY": 273.746, "EPHEMERIS_TYPE": 0, "CLASSIFICATION_TYPE": "U", "NORAD_CAT_ID": 66766, "ELEMENT_SET_NO": 999, "REV_AT_EPOCH": 387, "BSTAR": 0.00051694935, "MEAN_MOTION_DOT": 0.00010582, "MEAN_MOTION_DDOT": 0}, "tle": {"line1": "1 66766U 25276DE  25358.26274132  .00010582  00000+0  51695-3 0  9997", "line2": "2 66766  97.4361  69.8474 0002042  86.4008 273.7460 15.18431001  3876"}}, "geometry": {"type": "Point", "coordinates": [-101.63180844851281, 46.27634015978817]}}]}